EUTELSAT 115 WEST B     
1 40425U 15010B   25205.17288624 -.00000037  00000+0  00000+0 0  9993
2 40425   0.0076 197.9995 0000127 221.6116 189.8604  1.00274697 38146
EUTELSAT 8 WEST B       
1 40875U 15039B   25204.90669647 -.00000076  00000+0  00000+0 0  9994
2 40875   0.0647 351.0341 0003726 128.1324 141.1325  1.00272544 36369
EUTELSAT 9B             
1 41310U 16005A   25205.19762956  .00000050  00000+0  00000+0 0  9993
2 41310   0.0193  46.8882 0001077  83.9677 251.4478  1.00270062 34821
EUTELSAT 65 WEST A      
1 41382U 16014A   25205.07683450 -.00000287  00000+0  00000+0 0  9993
2 41382   0.0556 335.0728 0002197 149.6553 139.7714  1.00271533 34355
EUTELSAT 117 WEST B     
1 41589U 16038B   25204.45885845 -.00000021  00000+0  00000+0 0  9997
2 41589   0.0079 201.5907 0000202 261.7654 246.2595  1.00269851 33364
EUTELSAT 172B           
1 42741U 17029B   25204.87304794 -.00000017  00000+0  00000+0 0  9999
2 42741   0.0202 157.4525 0000108 110.8198 159.8576  1.00270273 30433
EUTELSAT 7C             
1 44334U 19034B   25205.12585146  .00000036  00000+0  00000+0 0  9998
2 44334   0.0734 195.2108 0003025 274.1608 245.0085  1.00268754 22841
EUTELSAT 5 WEST B       
1 44624U 19067A   25205.12351145 -.00000053  00000+0  00000+0 0  9996
2 44624   0.0804 321.7000 0002928 164.0392 215.8098  1.00272555 21141
